[
  {
    "name": "STARLINK-31741",
    "noradId": "59550",
    "line1": "1 59550U 24074S   26179.75318594  .00001000  00000+0  45882-4 0  9999",
    "line2": "2 59550  43.0026  75.9883 0001160 276.2501  83.8218 15.27560415123004"
  },
  {
    "name": "STARLINK-31699",
    "noradId": "59551",
    "line1": "1 59551U 24074T   26179.76731210 -.00002578  00000+0 -84150-4 0  9999",
    "line2": "2 59551  43.0057  76.0938 0001312 291.7237  68.3475 15.27587030123004"
  },
  {
    "name": "STARLINK-31750",
    "noradId": "59552",
    "line1": "1 59552U 24074U   26179.97504743  .00000993  00000+0  45636-4 0  9995",
    "line2": "2 59552  43.0044  75.0701 0001195 264.5539  95.5177 15.27566532123038"
  },
  {
    "name": "STARLINK-31723",
    "noradId": "59553",
    "line1": "1 59553U 24074V   26179.77502784  .00001471  00000+0  62993-4 0  9994",
    "line2": "2 59553  43.0037  76.1475 0001275 260.3076  99.7631 15.27570494123000"
  },
  {
    "name": "STARLINK-31724",
    "noradId": "59554",
    "line1": "1 59554U 24074W   26179.97321535  .00002157  00000+0  87918-4 0  9996",
    "line2": "2 59554  43.0027  39.0197 0001668 272.1259  87.9402 15.27573393123443"
  },
  {
    "name": "STARLINK-31730",
    "noradId": "59555",
    "line1": "1 59555U 24074X   26179.93535803  .00000816  00000+0  39171-4 0  9996",
    "line2": "2 59555  43.0018  75.6294 0001147 263.9152  96.1568 15.27567555123022"
  },
  {
    "name": "STARLINK-31718",
    "noradId": "59556",
    "line1": "1 59556U 24074Y   26179.98917690  .00001656  00000+0  69738-4 0  9995",
    "line2": "2 59556  43.0053  75.1747 0003197 276.4677  83.5811 15.27575756123032"
  },
  {
    "name": "STARLINK-31747",
    "noradId": "59564",
    "line1": "1 59564U 24076A   26179.77199530  .00001433  00000+0  61609-4 0  9990",
    "line2": "2 59564  43.0011  91.0826 0001011 262.0470  98.0267 15.27572781123609"
  },
  {
    "name": "STARLINK-31388",
    "noradId": "59565",
    "line1": "1 59565U 24076B   26179.93472797  .00001352  00000+0  58651-4 0  9991",
    "line2": "2 59565  43.0012 100.9803 0001021 268.5887  91.4848 15.27574133123515"
  },
  {
    "name": "STARLINK-31332",
    "noradId": "59566",
    "line1": "1 59566U 24076C   26179.83592898  .00001964  00000+0  80880-4 0  9994",
    "line2": "2 59566  43.0026 101.0810 0001065 266.8748  93.1982 15.27572950123508"
  },
  {
    "name": "STARLINK-31689",
    "noradId": "59567",
    "line1": "1 59567U 24076D   26179.92878119 -.00001818  00000+0 -56552-4 0  9997",
    "line2": "2 59567  43.0011  97.4593 0000976 268.7420  91.3320 15.27579773123558"
  },
  {
    "name": "STARLINK-31471",
    "noradId": "59568",
    "line1": "1 59568U 24076E   26179.84234943  .00002648  00000+0  10572-3 0  9991",
    "line2": "2 59568  43.0033 101.1277 0000994 261.2358  98.8381 15.27575784123415"
  },
  {
    "name": "STARLINK-31470",
    "noradId": "59569",
    "line1": "1 59569U 24076F   26179.46463836  .00003700  00000+0  14385-3 0  9991",
    "line2": "2 59569  42.9976 100.0000 0000346 309.7131  50.3690 15.27586305123394"
  },
  {
    "name": "STARLINK-31587",
    "noradId": "59570",
    "line1": "1 59570U 24076G   26179.93086773  .00000969  00000+0  44720-4 0  9997",
    "line2": "2 59570  43.0000 100.9347 0001121 265.3919  94.6804 15.27573558123532"
  },
  {
    "name": "STARLINK-31606",
    "noradId": "59571",
    "line1": "1 59571U 24076H   26179.91668981 -.00007348  00000+0 -25794-3 0  9992",
    "line2": "2 59571  43.0017 100.4442 0001436 247.4530 275.1378 15.27557379  5715"
  },
  {
    "name": "STARLINK-31666",
    "noradId": "59572",
    "line1": "1 59572U 24076J   26179.78565161  .00002314  00000+0  93662-4 0  9990",
    "line2": "2 59572  43.0019  94.6190 0001286 271.6847  88.3858 15.27558734123573"
  },
  {
    "name": "STARLINK-31683",
    "noradId": "59573",
    "line1": "1 59573U 24076K   26179.84363773  .00000816  00000+0  39188-4 0  9991",
    "line2": "2 59573  43.0028 101.1363 0001138 256.8982 103.1743 15.27573041123501"
  },
  {
    "name": "STARLINK-31751",
    "noradId": "59574",
    "line1": "1 59574U 24076L   26179.94243301  .00001865  00000+0  77285-4 0  9992",
    "line2": "2 59574  43.0015 101.0351 0000780 270.4548  89.6214 15.27578962123515"
  },
  {
    "name": "STARLINK-31510",
    "noradId": "59575",
    "line1": "1 59575U 24076M   26179.79415786  .00000897  00000+0  42133-4 0  9992",
    "line2": "2 59575  42.9986  98.1732 0001191 277.1072  82.9644 15.27571536123538"
  },
  {
    "name": "STARLINK-31663",
    "noradId": "59576",
    "line1": "1 59576U 24076N   26179.93857825  .00001946  00000+0  80216-4 0  9993",
    "line2": "2 59576  43.0008 100.9872 0000667 249.3817 110.6963 15.27577207123510"
  },
  {
    "name": "STARLINK-31692",
    "noradId": "59577",
    "line1": "1 59577U 24076P   26179.06773281  .00066391  00000+0  19521-2 0  9995",
    "line2": "2 59577  42.9999 103.8832 0007456 196.8347 163.2260 15.34208950123409"
  },
  {
    "name": "STARLINK-31685",
    "noradId": "59578",
    "line1": "1 59578U 24076Q   26179.82564735 -.00002142  00000+0 -68343-4 0  9996",
    "line2": "2 59578  43.0038 100.9977 0002330 270.6942  89.3642 15.27565156123501"
  },
  {
    "name": "STARLINK-31686",
    "noradId": "59579",
    "line1": "1 59579U 24076R   26179.50256233 -.00002471  00000+0 -80268-4 0  9998",
    "line2": "2 59579  43.0030 102.8769 0002142 273.0702  86.9905 15.27583306123452"
  },
  {
    "name": "STARLINK-31668",
    "noradId": "59580",
    "line1": "1 59580U 24076S   26179.94871165  .00000840  00000+0  40063-4 0  9990",
    "line2": "2 59580  43.0021 100.2076 0001211 275.9171  84.1543 15.27572770123523"
  },
  {
    "name": "STARLINK-31690",
    "noradId": "59581",
    "line1": "1 59581U 24076T   26179.77439441  .00001494  00000+0  63825-4 0  9996",
    "line2": "2 59581  43.0026 101.4754 0001284 261.0105  99.0601 15.27574267123509"
  },
  {
    "name": "STARLINK-31701",
    "noradId": "59582",
    "line1": "1 59582U 24076U   26179.07059433  .00049130  00000+0  17762-2 0  9995",
    "line2": "2 59582  43.0023 105.6544 0001194 273.8423  86.2292 15.27706616123299"
  },
  {
    "name": "STARLINK-31697",
    "noradId": "59583",
    "line1": "1 59583U 24076V   26179.83849806  .00001709  00000+0  71634-4 0  9991",
    "line2": "2 59583  43.0028 101.0872 0001407 270.7231  89.3460 15.27569217123418"
  },
  {
    "name": "STARLINK-31662",
    "noradId": "59584",
    "line1": "1 59584U 24076W   26179.79623991  .00001713  00000+0  71781-4 0  9990",
    "line2": "2 59584  43.0018 101.6396 0001498 276.6410  83.4271 15.27570822123496"
  },
  {
    "name": "STARLINK-31702",
    "noradId": "59585",
    "line1": "1 59585U 24076X   26179.81294016 -.00002833  00000+0 -93460-4 0  9990",
    "line2": "2 59585  43.0023 101.7670 0001314 269.3652  90.7049 15.27585850123494"
  },
  {
    "name": "STARLINK-31704",
    "noradId": "59586",
    "line1": "1 59586U 24076Y   26179.91668981  .00151711  00000+0  23507-2 0  9999",
    "line2": "2 59586  42.9895  43.4396 0024358 250.7589   4.7064 15.52436138  5755"
  }
]