OBJECT_NAME,OBJECT_ID,EPOCH,MEAN_MOTION,ECCENTRICITY,INCLINATION,RA_OF_ASC_NODE,ARG_OF_PERICENTER,MEAN_ANOMALY,EPHEMERIS_TYPE,CLASSIFICATION_TYPE,NORAD_CAT_ID,ELEMENT_SET_NO,REV_AT_EPOCH,BSTAR,MEAN_MOTION_DOT,MEAN_MOTION_DDOT
STARLINK-31741,2024-074S,2026-06-28T18:04:35.265216,15.27560415,.000116,43.0026,75.9883,276.2501,83.8218,0,U,59550,999,12300,.45881905E-4,.1E-4,0
STARLINK-31699,2024-074T,2026-06-28T18:24:55.765440,15.27587030,.00013125,43.0057,76.0938,291.7237,68.3475,0,U,59551,999,12300,-.84149663E-4,-.2578E-4,0
STARLINK-31750,2024-074U,2026-06-28T23:24:04.097952,15.27566532,.00011957,43.0044,75.0701,264.5539,95.5177,0,U,59552,999,12303,.45636028E-4,.993E-5,0
STARLINK-31723,2024-074V,2026-06-28T18:36:02.405376,15.27570494,.00012757,43.0037,76.1475,260.3076,99.7631,0,U,59553,999,12300,.62992976E-4,.1471E-4,0
STARLINK-31724,2024-074W,2026-06-28T23:21:25.806240,15.27573393,.00016687,43.0027,39.0197,272.1259,87.9402,0,U,59554,999,12344,.87918154E-4,.2157E-4,0
STARLINK-31730,2024-074X,2026-06-28T22:26:54.933792,15.27567555,.00011474,43.0018,75.6294,263.9152,96.1568,0,U,59555,999,12302,.39171149E-4,.816E-5,0
STARLINK-31718,2024-074Y,2026-06-28T23:44:24.884160,15.27575756,.00031978,43.0053,75.1747,276.4677,83.5811,0,U,59556,999,12303,.6973821E-4,.1656E-4,0
STARLINK-31747,2024-076A,2026-06-28T18:31:40.393920,15.27572781,.00010115,43.0011,91.0826,262.0470,98.0267,0,U,59564,999,12360,.61609143E-4,.1433E-4,0
STARLINK-31388,2024-076B,2026-06-28T22:26:00.496608,15.27574133,.00010214,43.0012,100.9803,268.5887,91.4848,0,U,59565,999,12351,.58650835E-4,.1352E-4,0
STARLINK-31332,2024-076C,2026-06-28T20:03:44.263872,15.27572950,.0001065,43.0026,101.0810,266.8748,93.1982,0,U,59566,999,12350,.80880421E-4,.1964E-4,0
STARLINK-31689,2024-076D,2026-06-28T22:17:26.694816,15.27579773,.00009767,43.0011,97.4593,268.7420,91.3320,0,U,59567,999,12355,-.56552283E-4,-.1818E-4,0
STARLINK-31471,2024-076E,2026-06-28T20:12:58.990752,15.27575784,.00009948,43.0033,101.1277,261.2358,98.8381,0,U,59568,999,12341,.10571644E-3,.2648E-4,0
STARLINK-31470,2024-076F,2026-06-28T11:09:04.754304,15.27586305,.00003468,42.9976,100.0000,309.7131,50.3690,0,U,59569,999,12339,.14385457E-3,.37E-4,0
STARLINK-31587,2024-076G,2026-06-28T22:20:26.971872,15.27573558,.0001121,43.0000,100.9347,265.3919,94.6804,0,U,59570,999,12353,.44719838E-4,.969E-5,0
STARLINK-31606,2024-076H,2026-06-28T22:00:01.999584,15.27557379,.00014369,43.0017,100.4442,247.4530,275.1378,0,U,59571,999,571,-.25794183E-3,-.7348E-4,0
STARLINK-31666,2024-076J,2026-06-28T18:51:20.299104,15.27558734,.00012866,43.0019,94.6190,271.6847,88.3858,0,U,59572,999,12357,.93662443E-4,.2314E-4,0
STARLINK-31683,2024-076K,2026-06-28T20:14:50.299872,15.27573041,.00011383,43.0028,101.1363,256.8982,103.1743,0,U,59573,999,12350,.39187676E-4,.816E-5,0
STARLINK-31751,2024-076L,2026-06-28T22:37:06.212064,15.27578962,.00007807,43.0015,101.0351,270.4548,89.6214,0,U,59574,999,12351,.77284531E-4,.1865E-4,0
STARLINK-31510,2024-076M,2026-06-28T19:03:35.239104,15.27571536,.00011913,42.9986,98.1732,277.1072,82.9644,0,U,59575,999,12353,.42133098E-4,.897E-5,0
STARLINK-31663,2024-076N,2026-06-28T22:31:33.160800,15.27577207,.00006673,43.0008,100.9872,249.3817,110.6963,0,U,59576,999,12351,.80216441E-4,.1946E-4,0
STARLINK-31692,2024-076P,2026-06-28T01:37:32.114784,15.34208950,.00074565,42.9999,103.8832,196.8347,163.2260,0,U,59577,999,12340,.19521069E-2,.66391E-3,0
STARLINK-31685,2024-076Q,2026-06-28T19:48:55.931040,15.27565156,.00023302,43.0038,100.9977,270.6942,89.3642,0,U,59578,999,12350,-.68343229E-4,-.2142E-4,0
STARLINK-31686,2024-076R,2026-06-28T12:03:41.385312,15.27583306,.00021426,43.0030,102.8769,273.0702,86.9905,0,U,59579,999,12345,-.80267614E-4,-.2471E-4,0
STARLINK-31668,2024-076S,2026-06-28T22:46:08.686560,15.27572770,.00012119,43.0021,100.2076,275.9171,84.1543,0,U,59580,999,12352,.40063197E-4,.84E-5,0
STARLINK-31690,2024-076T,2026-06-28T18:35:07.677024,15.27574267,.00012842,43.0026,101.4754,261.0105,99.0601,0,U,59581,999,12350,.63824929E-4,.1494E-4,0
STARLINK-31701,2024-076U,2026-06-28T01:41:39.350112,15.27706616,.00011941,43.0023,105.6544,273.8423,86.2292,0,U,59582,999,12329,.1776151E-2,.4913E-3,0
STARLINK-31697,2024-076V,2026-06-28T20:07:26.232384,15.27569217,.00014077,43.0028,101.0872,270.7231,89.3460,0,U,59583,999,12341,.71633992E-4,.1709E-4,0
STARLINK-31662,2024-076W,2026-06-28T19:06:35.128224,15.27570822,.00014987,43.0018,101.6396,276.6410,83.4271,0,U,59584,999,12349,.71780946E-4,.1713E-4,0
STARLINK-31702,2024-076X,2026-06-28T19:30:38.029824,15.27585850,.00013142,43.0023,101.7670,269.3652,90.7049,0,U,59585,999,12349,-.93460201E-4,-.2833E-4,0
STARLINK-31704,2024-076Y,2026-06-28T22:00:01.999584,15.52436138,.00243581,42.9895,43.4396,250.7589,4.7064,0,U,59586,999,575,.23506788E-2,.151711E-2,0
